{"type": "FeatureCollection", "features": [ {"type": "Feature", "properties": {"norad_id": 31736, "name": "FENGYUN 1C DEB", "group": "fengyun-1c-debris", "lat": 11.898333545472079, "lon": -22.36874674127124, "alt_km": 847.9785332961401, "timestamp": "2025-12-03T06:58:43.521738+00:00", "meta": {"OBJECT_NAME": "FENGYUN 1C DEB", "OBJECT_ID": "1999-025CEK", "EPOCH": "2025-12-02T17:20:15.118080", "MEAN_MOTION": 14.14173542, "ECCENTRICITY": 0.0010934, "INCLINATION": 98.6783, "RA_OF_ASC_NODE": 338.9234, "ARG_OF_PERICENTER": 271.8821, "MEAN_ANOMALY": 88.11, "EPHEMERIS_TYPE": 0, "CLASSIFICATION_TYPE": "U", "NORAD_CAT_ID": 31736, "ELEMENT_SET_NO": 999, "REV_AT_EPOCH": 63923, "BSTAR": 0.00020948, "MEAN_MOTION_DOT": 3.57e-06, "MEAN_MOTION_DDOT": 0}, "tle": {"line1": "1 31736U 99025CEK 25336.72239720  .00000357  00000+0  20948-3 0  9996", "line2": "2 31736  98.6783 338.9234 0010934 271.8821  88.1100 14.14173542639234"}}, "geometry": {"type": "Point", "coordinates": [-22.36874674127124, 11.898333545472079]}}, {"type": "Feature", "properties": {"norad_id": 31737, "name": "FENGYUN 1C DEB", "group": "fengyun-1c-debris", "lat": -60.15069863782369, "lon": 177.0631152503142, "alt_km": 774.2923920939038, "timestamp": "2025-12-03T06:58:43.521748+00:00", "meta": {"OBJECT_NAME": "FENGYUN 1C DEB", "OBJECT_ID": "1999-025CEL", "EPOCH": "2025-12-01T13:41:24.347616", "MEAN_MOTION": 14.68604518, "ECCENTRICITY": 0.0149838, "INCLINATION": 97.9197, "RA_OF_ASC_NODE": 9.4352, "ARG_OF_PERICENTER": 51.1715, "MEAN_ANOMALY": 100.2858, "EPHEMERIS_TYPE": 0, "CLASSIFICATION_TYPE": "U", "NORAD_CAT_ID": 31737, "ELEMENT_SET_NO": 999, "REV_AT_EPOCH": 98035, "BSTAR": 0.00058137248, "MEAN_MOTION_DOT": 3.955e-05, "MEAN_MOTION_DDOT": 0}, "tle": {"line1": "1 31737U 99025CEL 25335.57042069  .00003955  00000+0  58137-3 0  9995", "line2": "2 31737  97.9197   9.4352 0149838  51.1715 100.2858 14.68604518980353"}}, "geometry": {"type": "Point", "coordinates": [177.0631152503142, -60.15069863782369]}}, {"type": "Feature", "properties": {"norad_id": 31738, "name": "FENGYUN 1C DEB", "group": "fengyun-1c-debris", "lat": -57.649947021294686, "lon": -150.5607425518869, "alt_km": 1037.2745425281228, "timestamp": "2025-12-03T06:58:43.521758+00:00", "meta": {"OBJECT_NAME": "FENGYUN 1C DEB", "OBJECT_ID": "1999-025CEM", "EPOCH": "2025-11-17T10:08:15.850752", "MEAN_MOTION": 13.84884182, "ECCENTRICITY": 0.03082109, "INCLINATION": 99.3633, "RA_OF_ASC_NODE": 28.6808, "ARG_OF_PERICENTER": 167.6176, "MEAN_ANOMALY": 193.2777, "EPHEMERIS_TYPE": 0, "CLASSIFICATION_TYPE": "U", "NORAD_CAT_ID": 31738, "ELEMENT_SET_NO": 999, "REV_AT_EPOCH": 61907, "BSTAR": 0.0026324864, "MEAN_MOTION_DOT": 4.259e-05, "MEAN_MOTION_DDOT": 0}, "tle": {"line1": "1 31738U 99025CEM 25321.42240568  .00004259  00000+0  26325-2 0  9990", "line2": "2 31738  99.3633  28.6808 0308210 167.6176 193.2777 13.84884182619073"}}, "geometry": {"type": "Point", "coordinates": [-150.5607425518869, -57.649947021294686]}}, {"type": "Feature", "properties": {"norad_id": 31739, "name": "FENGYUN 1C DEB", "group": "fengyun-1c-debris", "lat": 69.0726722852397, "lon": 8.99418742720862, "alt_km": 744.3425446643068, "timestamp": "2025-12-03T06:58:43.521768+00:00", "meta": {"OBJECT_NAME": "FENGYUN 1C DEB", "OBJECT_ID": "1999-025CEN", "EPOCH": "2025-12-02T10:20:39.069600", "MEAN_MOTION": 14.19209908, "ECCENTRICITY": 0.01284606, "INCLINATION": 98.7491, "RA_OF_ASC_NODE": 31.8923, "ARG_OF_PERICENTER": 107.6285, "MEAN_ANOMALY": 253.8967, "EPHEMERIS_TYPE": 0, "CLASSIFICATION_TYPE": "U", "NORAD_CAT_ID": 31739, "ELEMENT_SET_NO": 999, "REV_AT_EPOCH": 95340, "BSTAR": 0.00013591016, "MEAN_MOTION_DOT": 2.67e-06, "MEAN_MOTION_DDOT": 0}, "tle": {"line1": "1 31739U 99025CEN 25336.43100775  .00000267  00000+0  13591-3 0  9990", "line2": "2 31739  98.7491  31.8923 0128460 107.6285 253.8967 14.19209908953403"}}, "geometry": {"type": "Point", "coordinates": [8.99418742720862, 69.0726722852397]}}, {"type": "Feature", "properties": {"norad_id": 31740, "name": "FENGYUN 1C DEB", "group": "fengyun-1c-debris", "lat": -31.688194263210725, "lon": 153.35350387497184, "alt_km": 768.5279921064111, "timestamp": "2025-12-03T06:58:43.521778+00:00", "meta": {"OBJECT_NAME": "FENGYUN 1C DEB", "OBJECT_ID": "1999-025CEP", "EPOCH": "2025-12-01T10:18:20.504736", "MEAN_MOTION": 14.42006625, "ECCENTRICITY": 0.00243587, "INCLINATION": 99.8211, "RA_OF_ASC_NODE": 145.0762, "ARG_OF_PERICENTER": 101.5156, "MEAN_ANOMALY": 289.0641, "EPHEMERIS_TYPE": 0, "CLASSIFICATION_TYPE": "U", "NORAD_CAT_ID": 31740, "ELEMENT_SET_NO": 999, "REV_AT_EPOCH": 64912, "BSTAR": 0.0016124187, "MEAN_MOTION_DOT": 5.258e-05, "MEAN_MOTION_DDOT": 0}, "tle": {"line1": "1 31740U 99025CEP 25335.42940399  .00005258  00000+0  16124-2 0  9993", "line2": "2 31740  99.8211 145.0762 0024358 101.5156 289.0641 14.42006625649125"}}, "geometry": {"type": "Point", "coordinates": [153.35350387497184, -31.688194263210725]}}, {"type": "Feature", "properties": {"norad_id": 31742, "name": "FENGYUN 1C DEB", "group": "fengyun-1c-debris", "lat": 28.311058089270794, "lon": 21.56237076956586, "alt_km": 807.4425258320089, "timestamp": "2025-12-03T06:58:43.521788+00:00", "meta": {"OBJECT_NAME": "FENGYUN 1C DEB", "OBJECT_ID": "1999-025CER", "EPOCH": "2025-12-01T20:55:18.603840", "MEAN_MOTION": 14.39718292, "ECCENTRICITY": 0.00771232, "INCLINATION": 98.9202, "RA_OF_ASC_NODE": 195.2322, "ARG_OF_PERICENTER": 1.5398, "MEAN_ANOMALY": 358.6012, "EPHEMERIS_TYPE": 0, "CLASSIFICATION_TYPE": "U", "NORAD_CAT_ID": 31742, "ELEMENT_SET_NO": 999, "REV_AT_EPOCH": 96493, "BSTAR": 0.00077832626, "MEAN_MOTION_DOT": 2.475e-05, "MEAN_MOTION_DDOT": 0}, "tle": {"line1": "1 31742U 99025CER 25335.87174310  .00002475  00000+0  77833-3 0  9999", "line2": "2 31742  98.9202 195.2322 0077123   1.5398 358.6012 14.39718292964931"}}, "geometry": {"type": "Point", "coordinates": [21.56237076956586, 28.311058089270794]}}, {"type": "Feature", "properties": {"norad_id": 31743, "name": "FENGYUN 1C DEB", "group": "fengyun-1c-debris", "lat": 16.988174213424088, "lon": 87.53722080751047, "alt_km": 785.8992164424753, "timestamp": "2025-12-03T06:58:43.521798+00:00", "meta": {"OBJECT_NAME": "FENGYUN 1C DEB", "OBJECT_ID": "1999-025CES", "EPOCH": "2025-12-01T14:32:00.153312", "MEAN_MOTION": 14.31133628, "ECCENTRICITY": 0.00376394, "INCLINATION": 99.1406, "RA_OF_ASC_NODE": 262.9461, "ARG_OF_PERICENTER": 252.5385, "MEAN_ANOMALY": 232.9861, "EPHEMERIS_TYPE": 0, "CLASSIFICATION_TYPE": "U", "NORAD_CAT_ID": 31743, "ELEMENT_SET_NO": 999, "REV_AT_EPOCH": 95481, "BSTAR": 0.0018260864, "MEAN_MOTION_DOT": 4.809e-05, "MEAN_MOTION_DDOT": 0}, "tle": {"line1": "1 31743U 99025CES 25335.60555733  .00004809  00000+0  18261-2 0  9995", "line2": "2 31743  99.1406 262.9461 0037639 252.5385 232.9861 14.31133628954817"}}, "geometry": {"type": "Point", "coordinates": [87.53722080751047, 16.988174213424088]}}, {"type": "Feature", "properties": {"norad_id": 31744, "name": "FENGYUN 1C DEB", "group": "fengyun-1c-debris", "lat": -74.59328074141769, "lon": -128.68845447110567, "alt_km": 1072.0055253239489, "timestamp": "2025-12-03T06:58:43.521809+00:00", "meta": {"OBJECT_NAME": "FENGYUN 1C DEB", "OBJECT_ID": "1999-025CET", "EPOCH": "2025-11-29T03:26:49.806528", "MEAN_MOTION": 14.16350524, "ECCENTRICITY": 0.03169793, "INCLINATION": 99.3044, "RA_OF_ASC_NODE": 83.4774, "ARG_OF_PERICENTER": 82.8313, "MEAN_ANOMALY": 280.878, "EPHEMERIS_TYPE": 0, "CLASSIFICATION_TYPE": "U", "NORAD_CAT_ID": 31744, "ELEMENT_SET_NO": 999, "REV_AT_EPOCH": 94422, "BSTAR": 0.0014635111, "MEAN_MOTION_DOT": 4.702e-05, "MEAN_MOTION_DDOT": 0}, "tle": {"line1": "1 31744U 99025CET 25333.14363202  .00004702  00000+0  14635-2 0  9994", "line2": "2 31744  99.3044  83.4774 0316979  82.8313 280.8780 14.16350524944228"}}, "geometry": {"type": "Point", "coordinates": [-128.68845447110567, -74.59328074141769]}}, {"type": "Feature", "properties": {"norad_id": 31746, "name": "FENGYUN 1C DEB", "group": "fengyun-1c-debris", "lat": 79.840850291067, "lon": -23.236414943238472, "alt_km": 647.4310572237182, "timestamp": "2025-12-03T06:58:43.521819+00:00", "meta": {"OBJECT_NAME": "FENGYUN 1C DEB", "OBJECT_ID": "1999-025CEV", "EPOCH": "2025-11-29T01:39:38.714976", "MEAN_MOTION": 14.75716723, "ECCENTRICITY": 0.00242766, "INCLINATION": 98.5877, "RA_OF_ASC_NODE": 94.7889, "ARG_OF_PERICENTER": 246.6999, "MEAN_ANOMALY": 113.1653, "EPHEMERIS_TYPE": 0, "CLASSIFICATION_TYPE": "U", "NORAD_CAT_ID": 31746, "ELEMENT_SET_NO": 999, "REV_AT_EPOCH": 96826, "BSTAR": 0.0036241777, "MEAN_MOTION_DOT": 0.00024934, "MEAN_MOTION_DDOT": 0}, "tle": {"line1": "1 31746U 99025CEV 25333.06919809  .00024934  00000+0  36242-2 0  9994", "line2": "2 31746  98.5877  94.7889 0024276 246.6999 113.1653 14.75716723968262"}}, "geometry": {"type": "Point", "coordinates": [-23.236414943238472, 79.840850291067]}}, {"type": "Feature", "properties": {"norad_id": 31752, "name": "FENGYUN 1C DEB", "group": "fengyun-1c-debris", "lat": -50.38022243698528, "lon": 61.34361770929358, "alt_km": 755.6812344847913, "timestamp": "2025-12-03T06:58:43.521829+00:00", "meta": {"OBJECT_NAME": "FENGYUN 1C DEB", "OBJECT_ID": "1999-025CFB", "EPOCH": "2025-11-28T11:42:46.096128", "MEAN_MOTION": 13.92945252, "ECCENTRICITY": 0.0356614, "INCLINATION": 98.9794, "RA_OF_ASC_NODE": 45.6633, "ARG_OF_PERICENTER": 12.9266, "MEAN_ANOMALY": 348.0748, "EPHEMERIS_TYPE": 0, "CLASSIFICATION_TYPE": "U", "NORAD_CAT_ID": 31752, "ELEMENT_SET_NO": 999, "REV_AT_EPOCH": 93392, "BSTAR": 0.0012622162, "MEAN_MOTION_DOT": 2.723e-05, "MEAN_MOTION_DDOT": 0}, "tle": {"line1": "1 31752U 99025CFB 25332.48803352  .00002723  00000+0  12622-2 0  9999", "line2": "2 31752  98.9794  45.6633 0356614  12.9266 348.0748 13.92945252933926"}}, "geometry": {"type": "Point", "coordinates": [61.34361770929358, -50.38022243698528]}}]}